{"type": "FeatureCollection", "features": [ {"type": "Feature", "properties": {"norad_id": 34681, "name": "COSMOS 2251 DEB", "group": "cosmos-2251-debris", "lat": -65.85905574320212, "lon": -92.84181727873937, "alt_km": 622.8360048067889, "timestamp": "2025-12-04T10:51:50.500908+00:00", "meta": {"OBJECT_NAME": "COSMOS 2251 DEB", "OBJECT_ID": "1993-036YB", "EPOCH": "2025-12-04T04:45:24.224256", "MEAN_MOTION": 14.82871626, "ECCENTRICITY": 0.0025694, "INCLINATION": 74.0621, "RA_OF_ASC_NODE": 307.2748, "ARG_OF_PERICENTER": 5.3653, "MEAN_ANOMALY": 5.44, "EPHEMERIS_TYPE": 0, "CLASSIFICATION_TYPE": "U", "NORAD_CAT_ID": 34681, "ELEMENT_SET_NO": 999, "REV_AT_EPOCH": 89144, "BSTAR": 0.0032885, "MEAN_MOTION_DOT": 0.00026873, "MEAN_MOTION_DDOT": 0}, "tle": {"line1": "1 34681U 93036YB  25338.19819704  .00026873  00000+0  32885-2 0  9996", "line2": "2 34681  74.0621 307.2748 0025694   5.3653   5.4400 14.82871626891447"}}, "geometry": {"type": "Point", "coordinates": [-92.84181727873937, -65.85905574320212]}}, {"type": "Feature", "properties": {"norad_id": 34682, "name": "COSMOS 2251 DEB", "group": "cosmos-2251-debris", "lat": 42.04005182365134, "lon": 113.72396411095805, "alt_km": 706.4821768836346, "timestamp": "2025-12-04T10:51:50.500918+00:00", "meta": {"OBJECT_NAME": "COSMOS 2251 DEB", "OBJECT_ID": "1993-036YC", "EPOCH": "2025-12-03T08:28:16.036032", "MEAN_MOTION": 14.58771685, "ECCENTRICITY": 0.0018745, "INCLINATION": 74.0388, "RA_OF_ASC_NODE": 100.8621, "ARG_OF_PERICENTER": 234.1512, "MEAN_ANOMALY": 157.2088, "EPHEMERIS_TYPE": 0, "CLASSIFICATION_TYPE": "U", "NORAD_CAT_ID": 34682, "ELEMENT_SET_NO": 999, "REV_AT_EPOCH": 88549, "BSTAR": 0.0013546, "MEAN_MOTION_DOT": 6.321e-05, "MEAN_MOTION_DDOT": 0}, "tle": {"line1": "1 34682U 93036YC  25337.35296338  .00006321  00000+0  13546-2 0  9995", "line2": "2 34682  74.0388 100.8621 0018745 234.1512 157.2088 14.58771685885493"}}, "geometry": {"type": "Point", "coordinates": [113.72396411095805, 42.04005182365134]}}, {"type": "Feature", "properties": {"norad_id": 34683, "name": "COSMOS 2251 DEB", "group": "cosmos-2251-debris", "lat": 29.980743483596022, "lon": 117.70897506560766, "alt_km": 690.533397739232, "timestamp": "2025-12-04T10:51:50.500928+00:00", "meta": {"OBJECT_NAME": "COSMOS 2251 DEB", "OBJECT_ID": "1993-036YD", "EPOCH": "2025-12-03T18:51:40.823424", "MEAN_MOTION": 14.64268609, "ECCENTRICITY": 0.0018837, "INCLINATION": 74.0284, "RA_OF_ASC_NODE": 109.4798, "ARG_OF_PERICENTER": 224.3122, "MEAN_ANOMALY": 253.6547, "EPHEMERIS_TYPE": 0, "CLASSIFICATION_TYPE": "U", "NORAD_CAT_ID": 34683, "ELEMENT_SET_NO": 999, "REV_AT_EPOCH": 88217, "BSTAR": 0.0021599236, "MEAN_MOTION_DOT": 0.00011406, "MEAN_MOTION_DDOT": 0}, "tle": {"line1": "1 34683U 93036YD  25337.78588916  .00011406  00000+0  21599-2 0  9996", "line2": "2 34683  74.0284 109.4798 0018837 224.3122 253.6547 14.64268609882176"}}, "geometry": {"type": "Point", "coordinates": [117.70897506560766, 29.980743483596022]}}, {"type": "Feature", "properties": {"norad_id": 34685, "name": "COSMOS 2251 DEB", "group": "cosmos-2251-debris", "lat": 27.912623582403732, "lon": 173.26389231228265, "alt_km": 705.297276188503, "timestamp": "2025-12-04T10:51:50.500938+00:00", "meta": {"OBJECT_NAME": "COSMOS 2251 DEB", "OBJECT_ID": "1993-036YF", "EPOCH": "2025-12-03T23:46:05.229984", "MEAN_MOTION": 14.57379377, "ECCENTRICITY": 0.001441, "INCLINATION": 74.0286, "RA_OF_ASC_NODE": 165.4159, "ARG_OF_PERICENTER": 269.3813, "MEAN_ANOMALY": 215.0589, "EPHEMERIS_TYPE": 0, "CLASSIFICATION_TYPE": "U", "NORAD_CAT_ID": 34685, "ELEMENT_SET_NO": 999, "REV_AT_EPOCH": 88404, "BSTAR": 0.0019132, "MEAN_MOTION_DOT": 8.667e-05, "MEAN_MOTION_DDOT": 0}, "tle": {"line1": "1 34685U 93036YF  25337.99033831  .00008667  00000+0  19132-2 0  9997", "line2": "2 34685  74.0286 165.4159 0014410 269.3813 215.0589 14.57379377884045"}}, "geometry": {"type": "Point", "coordinates": [173.26389231228265, 27.912623582403732]}}, {"type": "Feature", "properties": {"norad_id": 34689, "name": "COSMOS 2251 DEB", "group": "cosmos-2251-debris", "lat": 15.47112655572347, "lon": -117.66516671940303, "alt_km": 813.4173204872613, "timestamp": "2025-12-04T10:51:50.500949+00:00", "meta": {"OBJECT_NAME": "COSMOS 2251 DEB", "OBJECT_ID": "1993-036YK", "EPOCH": "2025-12-01T04:52:05.077056", "MEAN_MOTION": 14.04150485, "ECCENTRICITY": 0.0229843, "INCLINATION": 74.0888, "RA_OF_ASC_NODE": 243.4543, "ARG_OF_PERICENTER": 314.8144, "MEAN_ANOMALY": 197.2792, "EPHEMERIS_TYPE": 0, "CLASSIFICATION_TYPE": "U", "NORAD_CAT_ID": 34689, "ELEMENT_SET_NO": 999, "REV_AT_EPOCH": 84179, "BSTAR": 0.0056499, "MEAN_MOTION_DOT": 0.00011323, "MEAN_MOTION_DDOT": 0}, "tle": {"line1": "1 34689U 93036YK  25335.20283654  .00011323  00000+0  56499-2 0  9993", "line2": "2 34689  74.0888 243.4543 0229843 314.8144 197.2792 14.04150485841793"}}, "geometry": {"type": "Point", "coordinates": [-117.66516671940303, 15.47112655572347]}}, {"type": "Feature", "properties": {"norad_id": 34721, "name": "COSMOS 2251 DEB", "group": "cosmos-2251-debris", "lat": -73.77357208683124, "lon": -117.10010773968726, "alt_km": 752.894240291088, "timestamp": "2025-12-04T10:51:50.500960+00:00", "meta": {"OBJECT_NAME": "COSMOS 2251 DEB", "OBJECT_ID": "1993-036YP", "EPOCH": "2025-12-03T18:59:35.690784", "MEAN_MOTION": 13.96776355, "ECCENTRICITY": 0.02239774, "INCLINATION": 73.9228, "RA_OF_ASC_NODE": 341.7745, "ARG_OF_PERICENTER": 282.3054, "MEAN_ANOMALY": 262.1948, "EPHEMERIS_TYPE": 0, "CLASSIFICATION_TYPE": "U", "NORAD_CAT_ID": 34721, "ELEMENT_SET_NO": 999, "REV_AT_EPOCH": 85024, "BSTAR": 0.002612765, "MEAN_MOTION_DOT": 4.461e-05, "MEAN_MOTION_DDOT": 0}, "tle": {"line1": "1 34721U 93036YP  25337.79138531  .00004461  00000+0  26128-2 0  9990", "line2": "2 34721  73.9228 341.7745 0223977 282.3054 262.1948 13.96776355850248"}}, "geometry": {"type": "Point", "coordinates": [-117.10010773968726, -73.77357208683124]}}, {"type": "Feature", "properties": {"norad_id": 34722, "name": "COSMOS 2251 DEB", "group": "cosmos-2251-debris", "lat": 43.333291768116645, "lon": 6.69275925024991, "alt_km": 921.9780976864522, "timestamp": "2025-12-04T10:51:50.500970+00:00", "meta": {"OBJECT_NAME": "COSMOS 2251 DEB", "OBJECT_ID": "1993-036YQ", "EPOCH": "2025-12-03T11:34:07.843008", "MEAN_MOTION": 14.11883705, "ECCENTRICITY": 0.01674949, "INCLINATION": 73.8718, "RA_OF_ASC_NODE": 352.5809, "ARG_OF_PERICENTER": 279.7285, "MEAN_ANOMALY": 232.8069, "EPHEMERIS_TYPE": 0, "CLASSIFICATION_TYPE": "U", "NORAD_CAT_ID": 34722, "ELEMENT_SET_NO": 999, "REV_AT_EPOCH": 86114, "BSTAR": 0.0011687906, "MEAN_MOTION_DOT": 2.41e-05, "MEAN_MOTION_DDOT": 0}, "tle": {"line1": "1 34722U 93036YQ  25337.48203522  .00002410  00000+0  11688-2 0  9997", "line2": "2 34722  73.8718 352.5809 0167494 279.7285 232.8069 14.11883705861145"}}, "geometry": {"type": "Point", "coordinates": [6.69275925024991, 43.333291768116645]}}, {"type": "Feature", "properties": {"norad_id": 34726, "name": "COSMOS 2251 DEB", "group": "cosmos-2251-debris", "lat": 73.27134562730355, "lon": 109.80079652448941, "alt_km": 672.7249282689118, "timestamp": "2025-12-04T10:51:50.500981+00:00", "meta": {"OBJECT_NAME": "COSMOS 2251 DEB", "OBJECT_ID": "1993-036YU", "EPOCH": "2025-12-03T19:37:22.774944", "MEAN_MOTION": 14.59428841, "ECCENTRICITY": 0.0042453, "INCLINATION": 74.0292, "RA_OF_ASC_NODE": 3.3438, "ARG_OF_PERICENTER": 156.8323, "MEAN_ANOMALY": 203.4769, "EPHEMERIS_TYPE": 0, "CLASSIFICATION_TYPE": "U", "NORAD_CAT_ID": 34726, "ELEMENT_SET_NO": 999, "REV_AT_EPOCH": 88372, "BSTAR": 0.00077573, "MEAN_MOTION_DOT": 3.695e-05, "MEAN_MOTION_DDOT": 0}, "tle": {"line1": "1 34726U 93036YU  25337.81762471  .00003695  00000+0  77573-3 0  9993", "line2": "2 34726  74.0292   3.3438 0042453 156.8323 203.4769 14.59428841883720"}}, "geometry": {"type": "Point", "coordinates": [109.80079652448941, 73.27134562730355]}}, {"type": "Feature", "properties": {"norad_id": 34728, "name": "COSMOS 2251 DEB", "group": "cosmos-2251-debris", "lat": -4.511091354850137, "lon": -93.41905507933558, "alt_km": 653.293514830707, "timestamp": "2025-12-04T10:51:50.500991+00:00", "meta": {"OBJECT_NAME": "COSMOS 2251 DEB", "OBJECT_ID": "1993-036YW", "EPOCH": "2025-12-03T02:14:02.628672", "MEAN_MOTION": 14.70683723, "ECCENTRICITY": 0.0040693, "INCLINATION": 74.0187, "RA_OF_ASC_NODE": 270.5171, "ARG_OF_PERICENTER": 70.8224, "MEAN_ANOMALY": 289.7344, "EPHEMERIS_TYPE": 0, "CLASSIFICATION_TYPE": "U", "NORAD_CAT_ID": 34728, "ELEMENT_SET_NO": 999, "REV_AT_EPOCH": 88658, "BSTAR": 0.0010464414, "MEAN_MOTION_DOT": 6.43e-05, "MEAN_MOTION_DDOT": 0}, "tle": {"line1": "1 34728U 93036YW  25337.09308598  .00006430  00000+0  10464-2 0  9996", "line2": "2 34728  74.0187 270.5171 0040693  70.8224 289.7344 14.70683723886584"}}, "geometry": {"type": "Point", "coordinates": [-93.41905507933558, -4.511091354850137]}}, {"type": "Feature", "properties": {"norad_id": 34729, "name": "COSMOS 2251 DEB", "group": "cosmos-2251-debris", "lat": 15.82610808606818, "lon": 19.501713536370627, "alt_km": 626.7950507240266, "timestamp": "2025-12-04T10:51:50.501002+00:00", "meta": {"OBJECT_NAME": "COSMOS 2251 DEB", "OBJECT_ID": "1993-036YX", "EPOCH": "2025-12-03T10:46:25.403232", "MEAN_MOTION": 14.82363711, "ECCENTRICITY": 0.0012244, "INCLINATION": 74.0191, "RA_OF_ASC_NODE": 16.8279, "ARG_OF_PERICENTER": 141.7348, "MEAN_ANOMALY": 280.5603, "EPHEMERIS_TYPE": 0, "CLASSIFICATION_TYPE": "U", "NORAD_CAT_ID": 34729, "ELEMENT_SET_NO": 999, "REV_AT_EPOCH": 88320, "BSTAR": 0.0023674397, "MEAN_MOTION_DOT": 0.00018995, "MEAN_MOTION_DDOT": 0}, "tle": {"line1": "1 34729U 93036YX  25337.44890513  .00018995  00000+0  23674-2 0  9995", "line2": "2 34729  74.0191  16.8279 0012244 141.7348 280.5603 14.82363711883204"}}, "geometry": {"type": "Point", "coordinates": [19.501713536370627, 15.82610808606818]}}]}